0 OV1-13
1 03173U 68026A   13280.13634707 -.00000091  00000-0 -13663-3 0  2011
2 03173 099.9734 338.9934 3839543 008.4896 356.5495 07.25229449202281
0 OV1-13
1 03173U 68026A   13284.41139431  .00000060  00000-0  10778-3 0  2029
2 03173 099.9717 340.3733 3839753 005.1061 357.9456 07.25228192202597
0 OV1-13
1 03173U 68026A   13289.10016162  .00000111  00000-0  19042-3 0  2036
2 03173 099.9679 341.8879 3839804 001.3932 359.4730 07.25228770202935
0 OV1-13
1 03173U 68026A   13293.37520873 -.00000044  00000-0 -58502-4 0  2042
2 03173 099.9656 343.2675 3839701 358.0066 000.8650 07.25230601203245
